[{"OBJECT_NAME":"STARLINK-35218","OBJECT_ID":"2025-253X","EPOCH":"2026-03-09T10:40:20.344224","MEAN_MOTION":15.27591897,"ECCENTRICITY":0.00012834,"INCLINATION":43.0018,"RA_OF_ASC_NODE":214.1773,"ARG_OF_PERICENTER":267.9968,"MEAN_ANOMALY":92.0736,"EPHEMERIS_TYPE":0,"CLASSIFICATION_TYPE":"U","NORAD_CAT_ID":66340,"ELEMENT_SET_NO":999,"REV_AT_EPOCH":2020,"BSTAR":0.0009354775,"MEAN_MOTION_DOT":0.00025579,"MEAN_MOTION_DDOT":0},{"OBJECT_NAME":"FENGYUN 1C DEB","OBJECT_ID":"1999-025BCE","EPOCH":"2026-03-09T20:27:54.391104","MEAN_MOTION":15.38307136,"ECCENTRICITY":0.00917966,"INCLINATION":98.5506,"RA_OF_ASC_NODE":34.4945,"ARG_OF_PERICENTER":39.9911,"MEAN_ANOMALY":320.8043,"EPHEMERIS_TYPE":0,"CLASSIFICATION_TYPE":"U","NORAD_CAT_ID":30988,"ELEMENT_SET_NO":999,"REV_AT_EPOCH":875,"BSTAR":0.0023570074,"MEAN_MOTION_DOT":0.00103953,"MEAN_MOTION_DDOT":0}]
